ANIK F1R                
1 28868U 05036A   24169.70629906 -.00000054  00000+0  00000+0 0  9995
2 28868   2.4332  85.6382 0003850 358.7402 329.0397  1.00271574 39131
INMARSAT 4-F2           
1 28899U 05044A   24169.89925207 -.00000242  00000+0  00000+0 0  9990
2 28899   4.1889  42.4479 0002181  51.9997 279.4044  1.00273530 68207
COSMOS 2433 (720)       
1 32275U 07052A   24170.15745846 -.00000048  00000+0  00000+0 0  9998
2 32275  65.9355 340.3536 0001481 193.8959 166.1133  2.13104194129565
COSMOS 2432 (719)       
1 32276U 07052B   24169.99444458 -.00000048  00000+0  00000+0 0  9994
2 32276  65.9506 340.4730 0008417 336.7325 204.4670  2.13103336129550
COSMOS 2434 (721)       
1 32393U 07065A   24169.55293424  .00000084  00000+0  00000+0 0  9994
2 32393  64.3194 216.5624 0000236  82.3131  66.1805  2.13103298128257
GPS BIIR-2  (PRN 13)    
1 24876U 97035A   24169.77624998  .00000038  00000+0  00000+0 0  9994
2 24876  55.6712 127.1093 0079902  52.1515 308.5383  2.00565578197122
GPS BIIR-4  (PRN 20)    
1 26360U 00025A   24169.95384049 -.00000076  00000+0  00000+0 0  9990
2 26360  54.6673  48.8501 0037002 214.5206 357.9589  2.00547873176633
GPS BIIR-5  (PRN 22)    
1 26407U 00040A   24169.87238101  .00000023  00000+0  00000+0 0  9998
2 26407  55.0657 244.1579 0144860 294.6154  62.7263  2.00560411175317
GPS BIIR-8  (PRN 16)    
1 27663U 03005A   24169.20449966  .00000014  00000+0  00000+0 0  9997
2 27663  55.1046 243.9956 0136467  47.3680 323.5246  2.00574913156671
GPS BIIR-9  (PRN 21)    
1 27704U 03010A   24169.91068238 -.00000077  00000+0  00000+0 0  9996
2 27704  55.0984 353.7611 0253233 327.5914  51.7987  2.00563110155486
GPS BIIR-11 (PRN 19)    
1 28190U 04009A   24169.72100588 -.00000071  00000+0  00000+0 0  9993
2 28190  55.4543 305.0183 0097917 148.1891  34.9979  2.00559327148314
GPS BIIR-13 (PRN 02)    
1 28474U 04045A   24169.86497132 -.00000077  00000+0  00000+0 0  9993
2 28474  55.4270 354.1820 0161775 292.5066  40.0273  2.00561285143799
GPS BIIRM-1 (PRN 17)    
1 28874U 05038A   24169.44288050 -.00000071  00000+0  00000+0 0  9995
2 28874  55.5005 302.4908 0136112 284.1568  82.2436  2.00555460137200
GPS BIIRM-2 (PRN 31)    
1 29486U 06042A   24169.81244981  .00000113  00000+0  00000+0 0  9993
2 29486  54.6789 180.2617 0103302  38.1308 135.6644  2.00555851129762
GPS BIIRM-3 (PRN 12)    
1 29601U 06052A   24169.49895958  .00000020  00000+0  00000+0 0  9990
2 29601  55.1350 242.9616 0085009  83.0943 277.9394  2.00567900128773
GPS BIIRM-4 (PRN 15)    
1 32260U 07047A   24169.80066620 -.00000002  00000+0  00000+0 0  9992
2 32260  53.6075 110.2247 0155166  75.3036 286.3810  2.00564069122180
GPS BIIRM-5 (PRN 29)    
1 32384U 07062A   24169.86253969 -.00000069  00000+0  00000+0 0  9999
2 32384  55.6395 303.3367 0028547 151.4783  21.5314  2.00574968120881
