[{"OBJECT_NAME":"GPS BIIR-2  (PRN 13)","OBJECT_ID":"1997-035A","EPOCH":"2024-06-17T18:37:47.998272","MEAN_MOTION":2.00565578,"ECCENTRICITY":0.0079902,"INCLINATION":55.6712,"RA_OF_ASC_NODE":127.1093,"ARG_OF_PERICENTER":52.1515,"MEAN_ANOMALY":308.5383,"EPHEMERIS_TYPE":0,"CLASSIFICATION_TYPE":"U","NORAD_CAT_ID":24876,"ELEMENT_SET_NO":999,"REV_AT_EPOCH":19712,"BSTAR":0,"MEAN_MOTION_DOT":3.8e-7,"MEAN_MOTION_DDOT":0},{"OBJECT_NAME":"GPS BIIR-4  (PRN 20)","OBJECT_ID":"2000-025A","EPOCH":"2024-06-17T22:53:31.818336","MEAN_MOTION":2.00547873,"ECCENTRICITY":0.0037002,"INCLINATION":54.6673,"RA_OF_ASC_NODE":48.8501,"ARG_OF_PERICENTER":214.5206,"MEAN_ANOMALY":357.9589,"EPHEMERIS_TYPE":0,"CLASSIFICATION_TYPE":"U","NORAD_CAT_ID":26360,"ELEMENT_SET_NO":999,"REV_AT_EPOCH":17663,"BSTAR":0,"MEAN_MOTION_DOT":-7.6e-7,"MEAN_MOTION_DDOT":0},{"OBJECT_NAME":"GPS BIIR-5  (PRN 22)","OBJECT_ID":"2000-040A","EPOCH":"2024-06-17T20:56:13.719264","MEAN_MOTION":2.00560411,"ECCENTRICITY":0.014486,"INCLINATION":55.0657,"RA_OF_ASC_NODE":244.1579,"ARG_OF_PERICENTER":294.6154,"MEAN_ANOMALY":62.7263,"EPHEMERIS_TYPE":0,"CLASSIFICATION_TYPE":"U","NORAD_CAT_ID":26407,"ELEMENT_SET_NO":999,"REV_AT_EPOCH":17531,"BSTAR":0,"MEAN_MOTION_DOT":2.3e-7,"MEAN_MOTION_DDOT":0},{"OBJECT_NAME":"GPS BIIR-8  (PRN 16)","OBJECT_ID":"2003-005A","EPOCH":"2024-06-17T04:54:28.770624","MEAN_MOTION":2.00574913,"ECCENTRICITY":0.0136467,"INCLINATION":55.1046,"RA_OF_ASC_NODE":243.9956,"ARG_OF_PERICENTER":47.368,"MEAN_ANOMALY":323.5246,"EPHEMERIS_TYPE":0,"CLASSIFICATION_TYPE":"U","NORAD_CAT_ID":27663,"ELEMENT_SET_NO":999,"REV_AT_EPOCH":15667,"BSTAR":0,"MEAN_MOTION_DOT":1.4e-7,"MEAN_MOTION_DDOT":0},{"OBJECT_NAME":"GPS BIIR-9  (PRN 21)","OBJECT_ID":"2003-010A","EPOCH":"2024-06-17T21:51:22.957632","MEAN_MOTION":2.0056311,"ECCENTRICITY":0.0253233,"INCLINATION":55.0984,"RA_OF_ASC_NODE":353.7611,"ARG_OF_PERICENTER":327.5914,"MEAN_ANOMALY":51.7987,"EPHEMERIS_TYPE":0,"CLASSIFICATION_TYPE":"U","NORAD_CAT_ID":27704,"ELEMENT_SET_NO":999,"REV_AT_EPOCH":15548,"BSTAR":0,"MEAN_MOTION_DOT":-7.7e-7,"MEAN_MOTION_DDOT":0},{"OBJECT_NAME":"GPS BIIR-11 (PRN 19)","OBJECT_ID":"2004-009A","EPOCH":"2024-06-17T17:18:14.908032","MEAN_MOTION":2.00559327,"ECCENTRICITY":0.0097917,"INCLINATION":55.4543,"RA_OF_ASC_NODE":305.0183,"ARG_OF_PERICENTER":148.1891,"MEAN_ANOMALY":34.9979,"EPHEMERIS_TYPE":0,"CLASSIFICATION_TYPE":"U","NORAD_CAT_ID":28190,"ELEMENT_SET_NO":999,"REV_AT_EPOCH":14831,"BSTAR":0,"MEAN_MOTION_DOT":-7.1e-7,"MEAN_MOTION_DDOT":0},{"OBJECT_NAME":"GPS BIIR-13 (PRN 02)","OBJECT_ID":"2004-045A","EPOCH":"2024-06-17T20:45:33.522048","MEAN_MOTION":2.00561285,"ECCENTRICITY":0.0161775,"INCLINATION":55.427,"RA_OF_ASC_NODE":354.182,"ARG_OF_PERICENTER":292.5066,"MEAN_ANOMALY":40.0273,"EPHEMERIS_TYPE":0,"CLASSIFICATION_TYPE":"U","NORAD_CAT_ID":28474,"ELEMENT_SET_NO":999,"REV_AT_EPOCH":14379,"BSTAR":0,"MEAN_MOTION_DOT":-7.7e-7,"MEAN_MOTION_DDOT":0},{"OBJECT_NAME":"CRE (WAAS\/PRN 138)","OBJECT_ID":"2005-036A","EPOCH":"2024-06-17T16:57:04.238784","MEAN_MOTION":1.00271574,"ECCENTRICITY":0.000385,"INCLINATION":2.4332,"RA_OF_ASC_NODE":85.6382,"ARG_OF_PERICENTER":358.7402,"MEAN_ANOMALY":329.0397,"EPHEMERIS_TYPE":0,"CLASSIFICATION_TYPE":"U","NORAD_CAT_ID":28868,"ELEMENT_SET_NO":999,"REV_AT_EPOCH":3913,"BSTAR":0,"MEAN_MOTION_DOT":-5.4e-7,"MEAN_MOTION_DDOT":0},{"OBJECT_NAME":"GPS BIIRM-1 (PRN 17)","OBJECT_ID":"2005-038A","EPOCH":"2024-06-17T10:37:44.875200","MEAN_MOTION":2.0055546,"ECCENTRICITY":0.0136112,"INCLINATION":55.5005,"RA_OF_ASC_NODE":302.4908,"ARG_OF_PERICENTER":284.1568,"MEAN_ANOMALY":82.2436,"EPHEMERIS_TYPE":0,"CLASSIFICATION_TYPE":"U","NORAD_CAT_ID":28874,"ELEMENT_SET_NO":999,"REV_AT_EPOCH":13720,"BSTAR":0,"MEAN_MOTION_DOT":-7.1e-7,"MEAN_MOTION_DDOT":0},{"OBJECT_NAME":"IOR-W (EGNOS\/PRN 126)","OBJECT_ID":"2005-044A","EPOCH":"2024-06-17T21:34:55.378848","MEAN_MOTION":1.0027353,"ECCENTRICITY":0.0002181,"INCLINATION":4.1889,"RA_OF_ASC_NODE":42.4479,"ARG_OF_PERICENTER":51.9997,"MEAN_ANOMALY":279.4044,"EPHEMERIS_TYPE":0,"CLASSIFICATION_TYPE":"U","NORAD_CAT_ID":28899,"ELEMENT_SET_NO":999,"REV_AT_EPOCH":6820,"BSTAR":0,"MEAN_MOTION_DOT":-2.42e-6,"MEAN_MOTION_DDOT":0},{"OBJECT_NAME":"GPS BIIRM-2 (PRN 31)","OBJECT_ID":"2006-042A","EPOCH":"2024-06-17T19:29:55.663584","MEAN_MOTION":2.00555851,"ECCENTRICITY":0.0103302,"INCLINATION":54.6789,"RA_OF_ASC_NODE":180.2617,"ARG_OF_PERICENTER":38.1308,"MEAN_ANOMALY":135.6644,"EPHEMERIS_TYPE":0,"CLASSIFICATION_TYPE":"U","NORAD_CAT_ID":29486,"ELEMENT_SET_NO":999,"REV_AT_EPOCH":12976,"BSTAR":0,"MEAN_MOTION_DOT":1.13e-6,"MEAN_MOTION_DDOT":0},{"OBJECT_NAME":"GPS BIIRM-3 (PRN 12)","OBJECT_ID":"2006-052A","EPOCH":"2024-06-17T11:58:30.107712","MEAN_MOTION":2.005679,"ECCENTRICITY":0.0085009,"INCLINATION":55.135,"RA_OF_ASC_NODE":242.9616,"ARG_OF_PERICENTER":83.0943,"MEAN_ANOMALY":277.9394,"EPHEMERIS_TYPE":0,"CLASSIFICATION_TYPE":"U","NORAD_CAT_ID":29601,"ELEMENT_SET_NO":999,"REV_AT_EPOCH":12877,"BSTAR":0,"MEAN_MOTION_DOT":2.0e-7,"MEAN_MOTION_DDOT":0},{"OBJECT_NAME":"GPS BIIRM-4 (PRN 15)","OBJECT_ID":"2007-047A","EPOCH":"2024-06-17T19:12:57.559680","MEAN_MOTION":2.00564069,"ECCENTRICITY":0.0155166,"INCLINATION":53.6075,"RA_OF_ASC_NODE":110.2247,"ARG_OF_PERICENTER":75.3036,"MEAN_ANOMALY":286.381,"EPHEMERIS_TYPE":0,"CLASSIFICATION_TYPE":"U","NORAD_CAT_ID":32260,"ELEMENT_SET_NO":999,"REV_AT_EPOCH":12218,"BSTAR":0,"MEAN_MOTION_DOT":-2.0e-8,"MEAN_MOTION_DDOT":0},{"OBJECT_NAME":"COSMOS 2433 (720)","OBJECT_ID":"2007-052A","EPOCH":"2024-06-18T03:46:44.410944","MEAN_MOTION":2.13104194,"ECCENTRICITY":0.0001481,"INCLINATION":65.9355,"RA_OF_ASC_NODE":340.3536,"ARG_OF_PERICENTER":193.8959,"MEAN_ANOMALY":166.1133,"EPHEMERIS_TYPE":0,"CLASSIFICATION_TYPE":"U","NORAD_CAT_ID":32275,"ELEMENT_SET_NO":999,"REV_AT_EPOCH":12956,"BSTAR":0,"MEAN_MOTION_DOT":-4.8e-7,"MEAN_MOTION_DDOT":0},{"OBJECT_NAME":"COSMOS 2432 (719)","OBJECT_ID":"2007-052B","EPOCH":"2024-06-17T23:52:00.011712","MEAN_MOTION":2.13103336,"ECCENTRICITY":0.0008417,"INCLINATION":65.9506,"RA_OF_ASC_NODE":340.473,"ARG_OF_PERICENTER":336.7325,"MEAN_ANOMALY":204.467,"EPHEMERIS_TYPE":0,"CLASSIFICATION_TYPE":"U","NORAD_CAT_ID":32276,"ELEMENT_SET_NO":999,"REV_AT_EPOCH":12955,"BSTAR":0,"MEAN_MOTION_DOT":-4.8e-7,"MEAN_MOTION_DDOT":0},{"OBJECT_NAME":"GPS BIIRM-5 (PRN 29)","OBJECT_ID":"2007-062A","EPOCH":"2024-06-17T20:42:03.429216","MEAN_MOTION":2.00574968,"ECCENTRICITY":0.0028547,"INCLINATION":55.6395,"RA_OF_ASC_NODE":303.3367,"ARG_OF_PERICENTER":151.4783,"MEAN_ANOMALY":21.5314,"EPHEMERIS_TYPE":0,"CLASSIFICATION_TYPE":"U","NORAD_CAT_ID":32384,"ELEMENT_SET_NO":999,"REV_AT_EPOCH":12088,"BSTAR":0,"MEAN_MOTION_DOT":-6.9e-7,"MEAN_MOTION_DDOT":0},{"OBJECT_NAME":"COSMOS 2434 (721)","OBJECT_ID":"2007-065A","EPOCH":"2024-06-17T13:16:13.518336","MEAN_MOTION":2.13103298,"ECCENTRICITY":2.36e-5,"INCLINATION":64.3194,"RA_OF_ASC_NODE":216.5624,"ARG_OF_PERICENTER":82.3131,"MEAN_ANOMALY":66.1805,"EPHEMERIS_TYPE":0,"CLASSIFICATION_TYPE":"U","NORAD_CAT_ID":32393,"ELEMENT_SET_NO":999,"REV_AT_EPOCH":12825,"BSTAR":0,"MEAN_MOTION_DOT":8.4e-7,"MEAN_MOTION_DDOT":0}]
